[{"OBJECT_NAME":"NETSAT-1","OBJECT_ID":"2020-068W","EPOCH":"2026-03-09T22:42:38.711232","MEAN_MOTION":15.32042482,"ECCENTRICITY":0.00057337,"INCLINATION":97.8751,"RA_OF_ASC_NODE":63.2583,"ARG_OF_PERICENTER":18.5877,"MEAN_ANOMALY":341.5572,"EPHEMERIS_TYPE":0,"CLASSIFICATION_TYPE":"U","NORAD_CAT_ID":46506,"ELEMENT_SET_NO":999,"REV_AT_EPOCH":30009,"BSTAR":0.00059222329,"MEAN_MOTION_DOT":0.00018269,"MEAN_MOTION_DDOT":0},{"OBJECT_NAME":"STARLINK-35130","OBJECT_ID":"2025-216G","EPOCH":"2026-03-09T22:33:43.571232","MEAN_MOTION":15.30212667,"ECCENTRICITY":0.00010281,"INCLINATION":53.1597,"RA_OF_ASC_NODE":331.6083,"ARG_OF_PERICENTER":80.1443,"MEAN_ANOMALY":279.9674,"EPHEMERIS_TYPE":0,"CLASSIFICATION_TYPE":"U","NORAD_CAT_ID":65740,"ELEMENT_SET_NO":999,"REV_AT_EPOCH":2663,"BSTAR":0.00087187557,"MEAN_MOTION_DOT":0.00025562,"MEAN_MOTION_DDOT":0}]
